[{"OBJECT_NAME":"STARLINK-2661","OBJECT_ID":"2021-040AT","EPOCH":"2026-03-10T00:00:02.999808","MEAN_MOTION":15.25451954,"ECCENTRICITY":0.00013299,"INCLINATION":53.1375,"RA_OF_ASC_NODE":189.5495,"ARG_OF_PERICENTER":106.2776,"MEAN_ANOMALY":340.703,"EPHEMERIS_TYPE":0,"CLASSIFICATION_TYPE":"U","NORAD_CAT_ID":48469,"ELEMENT_SET_NO":999,"REV_AT_EPOCH":574,"BSTAR":0.058940308,"MEAN_MOTION_DOT":0.01671611,"MEAN_MOTION_DDOT":0},{"OBJECT_NAME":"COSMOS 970 DEB","OBJECT_ID":"1977-121BY","EPOCH":"2026-03-08T00:28:08.036544","MEAN_MOTION":15.38602545,"ECCENTRICITY":0.01254623,"INCLINATION":65.7647,"RA_OF_ASC_NODE":81.4591,"ARG_OF_PERICENTER":84.8291,"MEAN_ANOMALY":276.7158,"EPHEMERIS_TYPE":0,"CLASSIFICATION_TYPE":"U","NORAD_CAT_ID":20327,"ELEMENT_SET_NO":999,"REV_AT_EPOCH":74479,"BSTAR":0.0016623992,"MEAN_MOTION_DOT":0.00084425,"MEAN_MOTION_DDOT":0}]
